CCSDS_OMM_VERS,COMMENT,CREATION_DATE,ORIGINATOR,OBJECT_NAME,OBJECT_ID,CENTER_NAME,REF_FRAME,TIME_SYSTEM,MEAN_ELEMENT_THEORY,EPOCH,MEAN_MOTION,ECCENTRICITY,INCLINATION,RA_OF_ASC_NODE,ARG_OF_PERICENTER,MEAN_ANOMALY,EPHEMERIS_TYPE,CLASSIFICATION_TYPE,NORAD_CAT_ID,ELEMENT_SET_NO,REV_AT_EPOCH,BSTAR,MEAN_MOTION_DOT,MEAN_MOTION_DDOT,SEMIMAJOR_AXIS,PERIOD,APOAPSIS,PERIAPSIS,OBJECT_TYPE,RCS_SIZE,COUNTRY_CODE,LAUNCH_DATE,SITE,DECAY_DATE,FILE,GP_ID,TLE_LINE0,TLE_LINE1,TLE_LINE2
3.0,GENERATED VIA SPACE-TRACK.ORG API,2004-08-15T23:38:47,18 SPCS,SL-12 R/B(1),1971-082B,EARTH,TEME,UTC,SGP4,1971-10-01T04:08:38.501375,16.35482979,0.001667,51.5426,150.5293,191.947,168.1117,0,U,5489,999,45,0.0,0.03626567,0.0,6555.987,88.047,188.781,166.923,ROCKET BODY,,,,,1971-10-01,33974,9034983,0 SL-12 R/B(1),1 05489U 71082  B 71274.17266784  .03626567 +00000-0 +00000-0 0  9991,2 05489 051.5426 150.5293 0016670 191.9470 168.1117 16.35482979000455
3.0,GENERATED VIA SPACE-TRACK.ORG API,2004-08-17T15:02:24,18 SPCS,COBE DEB,1989-089BE,EARTH,TEME,UTC,SGP4,1994-09-23T13:18:48.762719,14.20781219,0.0048586,98.9273,283.0168,63.7533,299.9611,0,U,23059,999,24835,0.02545,0.00055989,0.0,7200.853,101.352,857.704,787.732,DEBRIS,MEDIUM,US,1989-11-18,AFWTR,1997-04-14,35097,22595805,0 COBE DEB,1 23059U 89089BE  94266.55473105  .00055989  00000-0  25450-1 0  9993,2 23059 098.9273 283.0168 0048586 063.7533 299.9611 14.20781219248359
3.0,GENERATED VIA SPACE-TRACK.ORG API,2004-08-16T23:24:14,18 SPCS,DELTA 1 R/B,1986-069B,EARTH,TEME,UTC,SGP4,1986-11-25T01:00:29.816063,16.44172309,0.0015304,22.7698,122.6916,40.3268,320.3073,0,U,16938,999,1268,0.00063256,0.21312522,-8.4646e-05,6532.868,87.582,164.731,144.735,ROCKET BODY,,,,,1986-11-25,34511,15040608,0 DELTA 1 R/B,1 16938U 86069B   86329.04201176  .21312522 -84646-4 +63256-3 0  9991,2 16938 022.7698 122.6916 0015304 040.3268 320.3073 16.44172309012688
3.0,GENERATED VIA SPACE-TRACK.ORG API,2023-03-11T11:56:18,18 SPCS,CZ-2D R/B,2022-088B,EARTH,TEME,UTC,SGP4,2023-03-11T11:08:29.896224,16.27050895,0.0005279,34.9693,115.0389,123.3349,10.7765,0,U,53317,999,3466,0.0042326,0.15685843,1.2769e-06,6578.614,88.504,203.952,197.006,ROCKET BODY,LARGE,PRC,2022-07-29,XSC,2023-03-11,3857343,227828300,0 CZ-2D R/B,1 53317U 22088B   23070.46423491  .15685843  12769-5  42326-2 0  9993,2 53317  34.9693 115.0389 0005279 123.3349  10.7765 16.27050895 34668
3.0,GENERATED VIA SPACE-TRACK.ORG API,2005-07-04T09:11:55,18 SPCS,SL-16 DEB,1995-058K,EARTH,TEME,UTC,SGP4,2005-07-04T09:05:33.085824,15.92883217,0.0026416,70.9516,287.9297,297.4801,63.0067,0,U,28293,999,20216,0.02076,0.05816857,0.050903,6672.36,90.402,311.851,276.599,DEBRIS,SMALL,CIS,1995-10-31,TTMTR,2005-07-04,155119,53862078,0 SL-16 DEB,1 28293U 95058K   05185.37885516  .05816857  50903-1  20760-1 0  9997,2 28293 070.9516 287.9297 0026416 297.4801 063.0067 15.92883217202167
3.0,GENERATED VIA SPACE-TRACK.ORG API,2004-08-17T14:41:42,18 SPCS,DELTA 1 DEB,1977-065FB,EARTH,TEME,UTC,SGP4,1989-02-01T16:36:20.138399,15.34595116,0.0098071,31.3307,210.9328,278.7418,97.8541,0,U,10632,999,54441,0.025241,0.01022572,0.0,6840.264,93.835,529.212,395.046,DEBRIS,SMALL,US,1977-07-14,AFETR,1989-02-03,34683,16638311,0 DELTA 1 DEB,1 10632U 77065 FB 89032.69189975  .01022572 +00000-0 +25241-1 0  9997,2 10632 031.3307 210.9328 0098071 278.7418 097.8541 15.34595116544410
3.0,GENERATED VIA SPACE-TRACK.ORG API,2004-08-15T23:39:47,18 SPCS,SL-4 DEB,1976-109E,EARTH,TEME,UTC,SGP4,1976-11-21T01:07:38.985600,16.3970623,1e-06,72.9118,165.1218,194.8781,165.2418,0,U,9520,999,316,0.0,0.03728576,0.0,6544.725,87.82,166.596,166.583,DEBRIS,,,,,1976-11-22,33994,9779586,0 SL-4 DEB,1 09520U 76109  E 76326.04697900  .03728576 +00000-0 +00000-0 0  9996,2 09520 072.9118 165.1218 0000010 194.8781 165.2418 16.39706230003163
3.0,GENERATED VIA SPACE-TRACK.ORG API,2004-08-17T15:26:15,18 SPCS,COSMOS 1484 DEB,1983-075P,EARTH,TEME,UTC,SGP4,1999-11-21T03:24:36.598463,16.087061,0.0019204,97.964,25.9748,11.7753,349.0665,0,U,22897,999,32812,0.017763,0.08154459,0.37077,6628.536,89.512,263.13,237.671,DEBRIS,SMALL,CIS,1983-07-24,TTMTR,1999-11-21,35574,31993162,0 COSMOS 1484 DEB,1 22897U 83075P   99325.14209026 +.08154459 +37077-0 +17763-1 0  9998,2 22897 097.9640 025.9748 0019204 011.7753 349.0665 16.08706100328128
3.0,GENERATED VIA SPACE-TRACK.ORG API,2004-08-17T15:22:21,18 SPCS,SL-4 R/B,1998-062B,EARTH,TEME,UTC,SGP4,1998-10-26T15:17:38.990112,16.4865251,0.0005885,51.6444,98.8792,89.9892,270.1815,0,U,25513,999,24,0.00031347,0.22337389,1.264e-05,6521.027,87.344,146.73,139.054,ROCKET BODY,LARGE,CIS,1998-10-25,TTMTR,1998-10-26,35496,28800933,0 SL-4 R/B,1 25513U 98062B   98299.63725683  .22337389  12640-4  31347-3 0  9993,2 25513 051.6444 098.8792 0005885 089.9892 270.1815 16.48652510   244
3.0,GENERATED VIA SPACE-TRACK.ORG API,2024-04-02T17:54:50,18 SPCS,CZ-6A DEB,2022-151ABB,EARTH,TEME,UTC,SGP4,2024-04-02T03:17:20.323392,16.18837747,0.0012717,98.4768,162.0239,2.6096,357.5252,0,U,56235,999,6403,0.0042509,0.07431066,3.0678e-06,6600.846,88.953,231.106,214.317,DEBRIS,SMALL,PRC,2022-11-11,TSC,2024-04-11,4259431,253464713,0 CZ-6A DEB,1 56235U 22151ABB 24093.13704078  .07431066  30678-5  42509-2 0  9998,2 56235  98.4768 162.0239 0012717   2.6096 357.5252 16.18837747 64033
3.0,GENERATED VIA SPACE-TRACK.ORG API,2023-12-12T17:21:00,18 SPCS,BREEZE-M DEB,2012-044CQ,EARTH,TEME,UTC,SGP4,2023-12-12T04:39:30.462048,16.16688912,0.0089535,49.8934,331.6726,288.1759,70.9501,0,U,38957,999,48718,0.0010174,0.03558544,1.1613e-05,6606.694,89.071,287.712,169.406,DEBRIS,SMALL,CIS,2012-08-06,TTMTR,2023-12-13,4134660,244574148,0 BREEZE-M DEB,1 38957U 12044CQ  23346.19410257  .03558544  11613-4  10174-2 0  9995,2 38957  49.8934 331.6726 0089535 288.1759  70.9501 16.16688912487187
3.0,GENERATED VIA SPACE-TRACK.ORG API,2004-08-15T23:37:47,18 SPCS,COSMOS 359,1970-065A,EARTH,TEME,UTC,SGP4,1970-11-05T04:57:27.019871,16.24725342,0.006481,51.1209,40.7439,334.9656,24.8175,0,U,4501,999,1162,0.0,0.04283179,0.0,6584.894,88.63,249.436,164.082,PAYLOAD,,,,,1970-11-06,33954,8900284,0 COSMOS 359,1 04501U 70065  A 70309.20656273  .04283179 +00000-0 +00000-0 0  9992,2 04501 051.1209 040.7439 0064810 334.9656 024.8175 16.24725342011625
3.0,GENERATED VIA SPACE-TRACK.ORG API,2004-08-17T15:27:42,18 SPCS,CZ-4 DEB,1999-057JW,EARTH,TEME,UTC,SGP4,2000-10-16T05:09:59.091264,16.05082524,0.0039388,98.4288,25.4877,338.4273,21.5996,0,U,26425,999,2692,0.016997,0.12865129,0.0,6638.508,89.715,286.521,234.226,DEBRIS,SMALL,PRC,1999-10-14,TSC,2000-11-04,35603,34888509,0 CZ-4 DEB,1 26425U 99057JW  00290.21526726  .12865129  00000-0  16997-1 0  9998,2 26425 098.4288 025.4877 0039388 338.4273 021.5996 16.05082524 26928
3.0,GENERATED VIA SPACE-TRACK.ORG API,2014-03-27T21:53:12,18 SPCS,SOYUZ-TMA 12M,2014-013A,EARTH,TEME,UTC,SGP4,2014-03-27T18:15:44.205983,15.47700903,0.0005167,51.6436,143.1476,354.9598,110.2967,0,U,39622,999,29,-0.00074195,-0.00039324,0.0,6801.594,93.041,426.974,419.945,PAYLOAD,,CIS,2014-03-25,TTMTR,2014-09-11,1656287,95525546,0 SOYUZ-TMA 12M,1 39622U 14013A   14086.76092831 -.00039324  00000-0 -74195-3 0  9998,2 39622 051.6436 143.1476 0005167 354.9598 110.2967 15.47700903   290
3.0,GENERATED VIA SPACE-TRACK.ORG API,2004-08-16T23:25:47,18 SPCS,COSMOS 1813 DEB,1987-004CJ,EARTH,TEME,UTC,SGP4,1987-07-09T01:45:26.807616,16.26551382,0.001892,72.8021,215.6513,235.1018,125.3532,0,U,17866,999,2496,0.0005694,0.01937165,7.757e-06,6579.965,88.53,214.279,189.38,DEBRIS,,,,,1987-07-11,34542,15624396,0 COSMOS 1813 DEB,1 17866U 87004 CJ 87190.07322694  .01937165 +77570-5 +56940-3 0  9995,2 17866 072.8021 215.6513 0018920 235.1018 125.3532 16.26551382024964
3.0,GENERATED VIA SPACE-TRACK.ORG API,2013-07-31T17:28:44,18 SPCS,FENGYUN 1C DEB,1999-025XP,EARTH,TEME,UTC,SGP4,2013-07-30T04:55:01.237151,15.76132778,0.0038043,99.2315,348.0671,303.9464,178.1926,0,U,30254,999,34035,0.051165,0.10327642,0.0,6719.55,91.362,366.979,315.852,DEBRIS,SMALL,PRC,1999-05-10,TSC,2013-07-31,1525033,93465911,0 FENGYUN 1C DEB,1 30254U 99025XP  13211.20487543  .10327642  00000-0  51165-1 0  9994,2 30254 099.2315 348.0671 0038043 303.9464 178.1926 15.76132778340357
3.0,GENERATED VIA SPACE-TRACK.ORG API,2022-01-24T06:46:12,18 SPCS,DRAGON CRS-24,2021-127A,EARTH,TEME,UTC,SGP4,2022-01-24T05:49:03.029088,15.98636115,0.0140283,51.6428,329.2624,68.3239,293.2582,0,U,50318,999,524,0.00029666,0.00460259,1.1413e-05,6656.339,90.077,371.581,184.827,PAYLOAD,LARGE,US,2021-12-21,AFETR,2022-01-24,3281311,194500227,0 DRAGON CRS-24,1 50318U 21127A   22024.24239617  .00460259  11413-4  29666-3 0  9996,2 50318  51.6428 329.2624 0140283  68.3239 293.2582 15.98636115  5249
3.0,GENERATED VIA SPACE-TRACK.ORG API,2004-08-16T23:16:38,18 SPCS,SL-4 DEB,1983-024C,EARTH,TEME,UTC,SGP4,1983-03-31T19:37:07.216031,16.06178474,0.010308,72.8722,354.866,90.1765,271.1282,0,U,13962,999,6,8.505e-05,0.07538729,8.367e-08,6635.488,89.653,325.752,188.955,DEBRIS,,,,,1983-04-01,34359,13447101,0 SL-4 DEB,1 13962U 83024  C 83090.81744463  .07538729 +08367-6 +08505-3 0  9997,2 13962 072.8722 354.8660 0103080 090.1765 271.1282 16.06178474000066
3.0,GENERATED VIA SPACE-TRACK.ORG API,2022-05-17T07:07:30,18 SPCS,FLOCK 2K 04,2017-042AC,EARTH,TEME,UTC,SGP4,2022-05-16T17:08:28.623552,16.35426405,0.0011472,96.7871,341.5245,262.4277,97.5718,0,U,42851,999,27230,0.0013547,0.10248545,2.1554e-06,6556.134,88.05,185.52,170.478,PAYLOAD,SMALL,US,2017-07-14,TTMTR,2022-05-17,3449601,203741891,0 FLOCK 2K 04,1 42851U 17042AC  22136.71422018  .10248545  21554-5  13547-2 0  9996,2 42851  96.7871 341.5245 0011472 262.4277  97.5718 16.35426405272306
